{
  "norad_id": 59923,
  "name": "STARLINK-31972",
  "history": [
    {
      "epoch": "2026-05-06T01:07:12.536832Z",
      "apogee_km": 483.485549631514,
      "perigee_km": 482.53528071451274,
      "latitude_deg": -2.0391010537394625e-05,
      "longitude_deg": 127.9877184034753,
      "height_km": 482.78258574438587,
      "semi_major_axis_km": 6861.1474151730135,
      "eccentricity": 6.925e-05,
      "inclination_deg": 43.0031,
      "raan_deg": 8.7029,
      "arg_perigee_deg": 270.5135,
      "mean_anomaly_deg": 89.5637,
      "mean_motion_rev_day": 15.27592918
    },
    {
      "epoch": "2026-05-07T16:21:09.262080Z",
      "apogee_km": 483.7650576442393,
      "perigee_km": 482.3763492050657,
      "latitude_deg": 4.544766407335985e-05,
      "longitude_deg": -111.33979097645994,
      "height_km": 482.7756558276467,
      "semi_major_axis_km": 6861.207703424652,
      "eccentricity": 0.0001012,
      "inclination_deg": 43.0062,
      "raan_deg": 359.4729,
      "arg_perigee_deg": 275.961,
      "mean_anomaly_deg": 84.1127,
      "mean_motion_rev_day": 15.27572784
    },
    {
      "epoch": "2026-05-08T08:02:37.913856Z",
      "apogee_km": 484.148583052689,
      "perigee_km": 481.7129040037371,
      "latitude_deg": -5.013929740695719e-05,
      "longitude_deg": 8.950204193075745,
      "height_km": 482.6305947731643,
      "semi_major_axis_km": 6861.067743528213,
      "eccentricity": 0.0001775,
      "inclination_deg": 43.0074,
      "raan_deg": 355.7768,
      "arg_perigee_deg": 273.6715,
      "mean_anomaly_deg": 86.3933,
      "mean_motion_rev_day": 15.27619526
    },
    {
      "epoch": "2026-05-09T15:25:50.797056Z",
      "apogee_km": 483.6692460432414,
      "perigee_km": 482.49734961637296,
      "latitude_deg": -1.3619658378565698e-05,
      "longitude_deg": -110.52685468612653,
      "height_km": 482.6842573256827,
      "semi_major_axis_km": 6861.220297829807,
      "eccentricity": 8.54e-05,
      "inclination_deg": 43.0011,
      "raan_deg": 348.3924,
      "arg_perigee_deg": 287.4166,
      "mean_anomaly_deg": 72.6592,
      "mean_motion_rev_day": 15.27568578
    },
    {
      "epoch": "2026-05-10T14:58:11.103168Z",
      "apogee_km": 483.3806709151013,
      "perigee_km": 482.77276737958437,
      "latitude_deg": 2.9084249565902572e-05,
      "longitude_deg": -110.1153305918668,
      "height_km": 482.755068683988,
      "semi_major_axis_km": 6861.213719147342,
      "eccentricity": 4.43e-05,
      "inclination_deg": 43.0039,
      "raan_deg": 342.8552,
      "arg_perigee_deg": 288.7934,
      "mean_anomaly_deg": 71.287,
      "mean_motion_rev_day": 15.27570775
    },
    {
      "epoch": "2026-05-11T20:47:09.055392Z",
      "apogee_km": 483.79049772870894,
      "perigee_km": 482.32769072141946,
      "latitude_deg": 6.619543153711387e-06,
      "longitude_deg": 154.40147374667157,
      "height_km": 482.6901157900213,
      "semi_major_axis_km": 6861.1960942250635,
      "eccentricity": 0.0001066,
      "inclination_deg": 43.0028,
      "raan_deg": 335.838,
      "arg_perigee_deg": 281.4913,
      "mean_anomaly_deg": 78.5819,
      "mean_motion_rev_day": 15.27576661
    }
  ]
}